[{"OBJECT_NAME":"STARLINK-35192","OBJECT_ID":"2025-225Z","EPOCH":"2026-03-28T16:39:16.980192","MEAN_MOTION":15.30204348,"ECCENTRICITY":0.0001803,"INCLINATION":53.1621,"RA_OF_ASC_NODE":77.6921,"ARG_OF_PERICENTER":93.7003,"MEAN_ANOMALY":266.4204,"EPHEMERIS_TYPE":0,"CLASSIFICATION_TYPE":"U","NORAD_CAT_ID":65933,"ELEMENT_SET_NO":999,"REV_AT_EPOCH":2731,"BSTAR":0.0007681,"MEAN_MOTION_DOT":0.00022462,"MEAN_MOTION_DDOT":0},{"OBJECT_NAME":"STARLINK-33921","OBJECT_ID":"2025-225AA","EPOCH":"2026-03-28T06:15:41.708160","MEAN_MOTION":15.30203505,"ECCENTRICITY":0.0001297,"INCLINATION":53.1581,"RA_OF_ASC_NODE":79.2574,"ARG_OF_PERICENTER":85.3976,"MEAN_ANOMALY":274.7173,"EPHEMERIS_TYPE":0,"CLASSIFICATION_TYPE":"U","NORAD_CAT_ID":65934,"ELEMENT_SET_NO":999,"REV_AT_EPOCH":2636,"BSTAR":0.00091888,"MEAN_MOTION_DOT":0.00026957,"MEAN_MOTION_DDOT":0},{"OBJECT_NAME":"STARLINK-35155","OBJECT_ID":"2025-225AB","EPOCH":"2026-03-28T16:21:02.771712","MEAN_MOTION":15.30204498,"ECCENTRICITY":0.0001542,"INCLINATION":53.1606,"RA_OF_ASC_NODE":77.6127,"ARG_OF_PERICENTER":90.9498,"MEAN_ANOMALY":269.168,"EPHEMERIS_TYPE":0,"CLASSIFICATION_TYPE":"U","NORAD_CAT_ID":65935,"ELEMENT_SET_NO":999,"REV_AT_EPOCH":2642,"BSTAR":0.0006058,"MEAN_MOTION_DOT":0.00017628,"MEAN_MOTION_DDOT":0},{"OBJECT_NAME":"STARLINK-35161","OBJECT_ID":"2025-225AC","EPOCH":"2026-03-28T07:10:24.254112","MEAN_MOTION":15.30211321,"ECCENTRICITY":0.0001596,"INCLINATION":53.1614,"RA_OF_ASC_NODE":79.496,"ARG_OF_PERICENTER":80.754,"MEAN_ANOMALY":279.3641,"EPHEMERIS_TYPE":0,"CLASSIFICATION_TYPE":"U","NORAD_CAT_ID":65936,"ELEMENT_SET_NO":999,"REV_AT_EPOCH":2636,"BSTAR":0.0010624,"MEAN_MOTION_DOT":0.0003125,"MEAN_MOTION_DDOT":0},{"OBJECT_NAME":"STARLINK-35473","OBJECT_ID":"2025-225AD","EPOCH":"2026-03-28T08:39:53.735904","MEAN_MOTION":15.3022038,"ECCENTRICITY":0.00015695,"INCLINATION":53.161,"RA_OF_ASC_NODE":79.1723,"ARG_OF_PERICENTER":73.4332,"MEAN_ANOMALY":286.6841,"EPHEMERIS_TYPE":0,"CLASSIFICATION_TYPE":"U","NORAD_CAT_ID":65937,"ELEMENT_SET_NO":999,"REV_AT_EPOCH":2637,"BSTAR":0.0008011751,"MEAN_MOTION_DOT":0.00023459,"MEAN_MOTION_DDOT":0},{"OBJECT_NAME":"STARLINK-34849","OBJECT_ID":"2025-232A","EPOCH":"2026-03-28T19:48:40.767840","MEAN_MOTION":15.30235549,"ECCENTRICITY":0.0001878,"INCLINATION":53.1602,"RA_OF_ASC_NODE":15.1504,"ARG_OF_PERICENTER":91.7241,"MEAN_ANOMALY":268.3974,"EPHEMERIS_TYPE":0,"CLASSIFICATION_TYPE":"U","NORAD_CAT_ID":66005,"ELEMENT_SET_NO":999,"REV_AT_EPOCH":2635,"BSTAR":0.0013222,"MEAN_MOTION_DOT":0.0003905,"MEAN_MOTION_DDOT":0},{"OBJECT_NAME":"STARLINK-35336","OBJECT_ID":"2025-232B","EPOCH":"2026-03-28T18:41:49.075872","MEAN_MOTION":15.30226703,"ECCENTRICITY":0.0001727,"INCLINATION":53.1624,"RA_OF_ASC_NODE":14.8592,"ARG_OF_PERICENTER":75.4513,"MEAN_ANOMALY":284.6679,"EPHEMERIS_TYPE":0,"CLASSIFICATION_TYPE":"U","NORAD_CAT_ID":66006,"ELEMENT_SET_NO":999,"REV_AT_EPOCH":2635,"BSTAR":0.00089562,"MEAN_MOTION_DOT":0.00026282,"MEAN_MOTION_DDOT":0},{"OBJECT_NAME":"STARLINK-35196","OBJECT_ID":"2025-232C","EPOCH":"2026-03-28T05:04:12.964224","MEAN_MOTION":15.30207986,"ECCENTRICITY":0.00011533,"INCLINATION":53.1617,"RA_OF_ASC_NODE":17.7144,"ARG_OF_PERICENTER":86.677,"MEAN_ANOMALY":273.4362,"EPHEMERIS_TYPE":0,"CLASSIFICATION_TYPE":"U","NORAD_CAT_ID":66007,"ELEMENT_SET_NO":999,"REV_AT_EPOCH":2626,"BSTAR":0.0014045769,"MEAN_MOTION_DOT":0.00041483,"MEAN_MOTION_DDOT":0},{"OBJECT_NAME":"STARLINK-35236","OBJECT_ID":"2025-232D","EPOCH":"2026-03-28T02:28:01.305696","MEAN_MOTION":15.30203335,"ECCENTRICITY":0.00011045,"INCLINATION":53.1601,"RA_OF_ASC_NODE":18.455,"ARG_OF_PERICENTER":94.0307,"MEAN_ANOMALY":266.082,"EPHEMERIS_TYPE":0,"CLASSIFICATION_TYPE":"U","NORAD_CAT_ID":66008,"ELEMENT_SET_NO":999,"REV_AT_EPOCH":2623,"BSTAR":0.0011468002,"MEAN_MOTION_DOT":0.00033764,"MEAN_MOTION_DDOT":0},{"OBJECT_NAME":"STARLINK-35276","OBJECT_ID":"2025-232E","EPOCH":"2026-03-28T05:22:27.034464","MEAN_MOTION":15.30212644,"ECCENTRICITY":0.000115,"INCLINATION":53.1607,"RA_OF_ASC_NODE":17.7942,"ARG_OF_PERICENTER":98.8565,"MEAN_ANOMALY":261.2566,"EPHEMERIS_TYPE":0,"CLASSIFICATION_TYPE":"U","NORAD_CAT_ID":66009,"ELEMENT_SET_NO":999,"REV_AT_EPOCH":2625,"BSTAR":0.0017616,"MEAN_MOTION_DOT":0.00052202,"MEAN_MOTION_DDOT":0},{"OBJECT_NAME":"STARLINK-35297","OBJECT_ID":"2025-232F","EPOCH":"2026-03-28T18:26:47.238720","MEAN_MOTION":15.30218645,"ECCENTRICITY":0.000171,"INCLINATION":53.16,"RA_OF_ASC_NODE":15.501,"ARG_OF_PERICENTER":86.5508,"MEAN_ANOMALY":273.5688,"EPHEMERIS_TYPE":0,"CLASSIFICATION_TYPE":"U","NORAD_CAT_ID":66010,"ELEMENT_SET_NO":999,"REV_AT_EPOCH":2634,"BSTAR":0.0015454,"MEAN_MOTION_DOT":0.0004572,"MEAN_MOTION_DDOT":0},{"OBJECT_NAME":"STARLINK-35256","OBJECT_ID":"2025-232G","EPOCH":"2026-03-28T19:01:33.435840","MEAN_MOTION":15.30218363,"ECCENTRICITY":0.0001555,"INCLINATION":53.1623,"RA_OF_ASC_NODE":14.9407,"ARG_OF_PERICENTER":100.5363,"MEAN_ANOMALY":259.5813,"EPHEMERIS_TYPE":0,"CLASSIFICATION_TYPE":"U","NORAD_CAT_ID":66011,"ELEMENT_SET_NO":999,"REV_AT_EPOCH":2636,"BSTAR":0.00064018,"MEAN_MOTION_DOT":0.00018659,"MEAN_MOTION_DDOT":0},{"OBJECT_NAME":"STARLINK-35293","OBJECT_ID":"2025-232H","EPOCH":"2026-03-28T18:52:27.128640","MEAN_MOTION":15.30219499,"ECCENTRICITY":0.0001167,"INCLINATION":53.1622,"RA_OF_ASC_NODE":14.9026,"ARG_OF_PERICENTER":97.0358,"MEAN_ANOMALY":263.0776,"EPHEMERIS_TYPE":0,"CLASSIFICATION_TYPE":"U","NORAD_CAT_ID":66012,"ELEMENT_SET_NO":999,"REV_AT_EPOCH":2636,"BSTAR":0.0005482,"MEAN_MOTION_DOT":0.00015922,"MEAN_MOTION_DDOT":0},{"OBJECT_NAME":"STARLINK-35307","OBJECT_ID":"2025-232J","EPOCH":"2026-03-28T11:49:16.850496","MEAN_MOTION":15.30230606,"ECCENTRICITY":0.00019392,"INCLINATION":53.1601,"RA_OF_ASC_NODE":16.6263,"ARG_OF_PERICENTER":98.4481,"MEAN_ANOMALY":261.674,"EPHEMERIS_TYPE":0,"CLASSIFICATION_TYPE":"U","NORAD_CAT_ID":66013,"ELEMENT_SET_NO":999,"REV_AT_EPOCH":2631,"BSTAR":0.0012029384,"MEAN_MOTION_DOT":0.00035473,"MEAN_MOTION_DDOT":0},{"OBJECT_NAME":"STARLINK-35395","OBJECT_ID":"2025-232K","EPOCH":"2026-03-28T02:05:13.328448","MEAN_MOTION":15.30204563,"ECCENTRICITY":8.596e-5,"INCLINATION":53.1613,"RA_OF_ASC_NODE":18.3598,"ARG_OF_PERICENTER":107.5314,"MEAN_ANOMALY":252.5781,"EPHEMERIS_TYPE":0,"CLASSIFICATION_TYPE":"U","NORAD_CAT_ID":66014,"ELEMENT_SET_NO":999,"REV_AT_EPOCH":2625,"BSTAR":0.0011173858,"MEAN_MOTION_DOT":0.00032886,"MEAN_MOTION_DDOT":0},{"OBJECT_NAME":"STARLINK-34622","OBJECT_ID":"2025-232L","EPOCH":"2026-03-28T04:17:15.943200","MEAN_MOTION":15.3021836,"ECCENTRICITY":9.088e-5,"INCLINATION":53.1606,"RA_OF_ASC_NODE":18.2125,"ARG_OF_PERICENTER":113.3809,"MEAN_ANOMALY":246.7288,"EPHEMERIS_TYPE":0,"CLASSIFICATION_TYPE":"U","NORAD_CAT_ID":66015,"ELEMENT_SET_NO":999,"REV_AT_EPOCH":2625,"BSTAR":0.0011835981,"MEAN_MOTION_DOT":0.0003488,"MEAN_MOTION_DDOT":0}]
