STARLINK-35192          
1 65933U 25225Z   26087.69394653  .00022462  00000+0  76810-3 0  9990
2 65933  53.1621  77.6921 0001803  93.7003 266.4204 15.30204348 27319
STARLINK-33921          
1 65934U 25225AA  26087.26089940  .00026957  00000+0  91888-3 0  9999
2 65934  53.1581  79.2574 0001297  85.3976 274.7173 15.30203505 26365
STARLINK-35155          
1 65935U 25225AB  26087.68128208  .00017628  00000+0  60580-3 0  9997
2 65935  53.1606  77.6127 0001542  90.9498 269.1680 15.30204498 26424
STARLINK-35161          
1 65936U 25225AC  26087.29889183  .00031250  00000+0  10624-2 0  9991
2 65936  53.1614  79.4960 0001596  80.7540 279.3641 15.30211321 26369
STARLINK-35473          
1 65937U 25225AD  26087.36103861  .00023459  00000+0  80118-3 0  9990
2 65937  53.1610  79.1723 0001569  73.4332 286.6841 15.30220380 26377
STARLINK-34849          
1 66005U 25232A   26087.82547185  .00039050  00000+0  13222-2 0  9992
2 66005  53.1602  15.1504 0001878  91.7241 268.3974 15.30235549 26352
STARLINK-35336          
1 66006U 25232B   26087.77904023  .00026282  00000+0  89562-3 0  9999
2 66006  53.1624  14.8592 0001727  75.4513 284.6679 15.30226703 26359
STARLINK-35196          
1 66007U 25232C   26087.21126116  .00041483  00000+0  14046-2 0  9992
2 66007  53.1617  17.7144 0001153  86.6770 273.4362 15.30207986 26266
STARLINK-35236          
1 66008U 25232D   26087.10279289  .00033764  00000+0  11468-2 0  9999
2 66008  53.1601  18.4550 0001104  94.0307 266.0820 15.30203335 26232
STARLINK-35276          
1 66009U 25232E   26087.22392401  .00052202  00000+0  17616-2 0  9994
2 66009  53.1607  17.7942 0001150  98.8565 261.2566 15.30212644 26254
STARLINK-35297          
1 66010U 25232F   26087.76860230  .00045720  00000+0  15454-2 0  9990
2 66010  53.1600  15.5010 0001710  86.5508 273.5688 15.30218645 26342
STARLINK-35256          
1 66011U 25232G   26087.79274810  .00018659  00000+0  64018-3 0  9999
2 66011  53.1623  14.9407 0001555 100.5363 259.5813 15.30218363 26367
STARLINK-35293          
1 66012U 25232H   26087.78642510  .00015922  00000+0  54820-3 0  9995
2 66012  53.1622  14.9026 0001167  97.0358 263.0776 15.30219499 26366
STARLINK-35307          
1 66013U 25232J   26087.49255614  .00035473  00000+0  12029-2 0  9996
2 66013  53.1601  16.6263 0001939  98.4481 261.6740 15.30230606 26318
STARLINK-35395          
1 66014U 25232K   26087.08695982  .00032886  00000+0  11174-2 0  9993
2 66014  53.1613  18.3598 0000859 107.5314 252.5781 15.30204563 26259
STARLINK-34622          
1 66015U 25232L   26087.17865675  .00034880  00000+0  11836-2 0  9993
2 66015  53.1606  18.2125 0000908 113.3809 246.7288 15.30218360 26253
